{
  "type": "FeatureCollection",
  "features": [
    {
      "type": "Feature",
      "properties": {
        "norad_id": 24946,
        "name": "IRIDIUM 33",
        "group": "iridium-33-debris",
        "lat": 76.69398651820458,
        "lon": -133.30435399328803,
        "alt_km": 763.927959301428,
        "timestamp": "2025-12-27T02:10:16.573781+00:00",
        "meta_object_name": "IRIDIUM 33",
        "meta_object_id": "1997-051C",
        "meta_epoch": "2025-12-26T17:19:35.200416",
        "meta_mean_motion": 14.35046878,
        "meta_eccentricity": 0.0008665,
        "meta_inclination": 86.3856,
        "meta_ra_of_asc_node": 62.3518,
        "meta_arg_of_pericenter": 155.733,
        "meta_mean_anomaly": 204.4276,
        "meta_ephemeris_type": 0,
        "meta_classification_type": "U",
        "meta_norad_cat_id": 24946,
        "meta_element_set_no": 999,
        "meta_rev_at_epoch": 48035,
        "meta_bstar": 0.00011551,
        "meta_mean_motion_dot": 3.49e-06,
        "meta_mean_motion_ddot": 0,
        "tle_line1": "1 24946U 97051C   25360.72193519  .00000349  00000+0  11551-3 0  9991",
        "tle_line2": "2 24946  86.3856  62.3518 0008665 155.7330 204.4276 14.35046878480358"
      },
      "geometry": {
        "type": "Point",
        "coordinates": [
          -133.30435399328803,
          76.69398651820458
        ]
      }
    },
    {
      "type": "Feature",
      "properties": {
        "norad_id": 33773,
        "name": "IRIDIUM 33 DEB",
        "group": "iridium-33-debris",
        "lat": 55.31798980174864,
        "lon": -130.7131138721328,
        "alt_km": 733.5155978830326,
        "timestamp": "2025-12-27T02:10:16.573820+00:00",
        "meta_object_name": "IRIDIUM 33 DEB",
        "meta_object_id": "1997-051L",
        "meta_epoch": "2025-12-26T13:56:59.891136",
        "meta_mean_motion": 14.43285398,
        "meta_eccentricity": 0.0013338,
        "meta_inclination": 86.3996,
        "meta_ra_of_asc_node": 54.7233,
        "meta_arg_of_pericenter": 106.7873,
        "meta_mean_anomaly": 253.4792,
        "meta_ephemeris_type": 0,
        "meta_classification_type": "U",
        "meta_norad_cat_id": 33773,
        "meta_element_set_no": 999,
        "meta_rev_at_epoch": 88547,
        "meta_bstar": 0.00030304,
        "meta_mean_motion_dot": 1.041e-05,
        "meta_mean_motion_ddot": 0,
        "tle_line1": "1 33773U 97051L   25360.58124874  .00001041  00000+0  30304-3 0  9998",
        "tle_line2": "2 33773  86.3996  54.7233 0013338 106.7873 253.4792 14.43285398885471"
      },
      "geometry": {
        "type": "Point",
        "coordinates": [
          -130.7131138721328,
          55.31798980174864
        ]
      }
    },
    {
      "type": "Feature",
      "properties": {
        "norad_id": 33775,
        "name": "IRIDIUM 33 DEB",
        "group": "iridium-33-debris",
        "lat": 64.03043145241769,
        "lon": -144.07895365959484,
        "alt_km": 736.4424693866385,
        "timestamp": "2025-12-27T02:10:16.573836+00:00",
        "meta_object_name": "IRIDIUM 33 DEB",
        "meta_object_id": "1997-051N",
        "meta_epoch": "2025-12-26T14:30:38.060352",
        "meta_mean_motion": 14.41497589,
        "meta_eccentricity": 0.0015385,
        "meta_inclination": 86.3623,
        "meta_ra_of_asc_node": 43.6333,
        "meta_arg_of_pericenter": 113.6049,
        "meta_mean_anomaly": 2.3398,
        "meta_ephemeris_type": 0,
        "meta_classification_type": "U",
        "meta_norad_cat_id": 33775,
        "meta_element_set_no": 999,
        "meta_rev_at_epoch": 88340,
        "meta_bstar": 0.00033398,
        "meta_mean_motion_dot": 1.105e-05,
        "meta_mean_motion_ddot": 0,
        "tle_line1": "1 33775U 97051N   25360.60460718  .00001105  00000+0  33398-3 0  9990",
        "tle_line2": "2 33775  86.3623  43.6333 0015385 113.6049   2.3398 14.41497589883403"
      },
      "geometry": {
        "type": "Point",
        "coordinates": [
          -144.07895365959484,
          64.03043145241769
        ]
      }
    },
    {
      "type": "Feature",
      "properties": {
        "norad_id": 33776,
        "name": "IRIDIUM 33 DEB",
        "group": "iridium-33-debris",
        "lat": 1.3809656019622354,
        "lon": -105.33780237366005,
        "alt_km": 757.6555364640026,
        "timestamp": "2025-12-27T02:10:16.573849+00:00",
        "meta_object_name": "IRIDIUM 33 DEB",
        "meta_object_id": "1997-051P",
        "meta_epoch": "2025-12-26T17:34:30.701856",
        "meta_mean_motion": 14.38258502,
        "meta_eccentricity": 0.0015882,
        "meta_inclination": 86.4031,
        "meta_ra_of_asc_node": 74.8995,
        "meta_arg_of_pericenter": 146.2524,
        "meta_mean_anomaly": 338.8136,
        "meta_ephemeris_type": 0,
        "meta_classification_type": "U",
        "meta_norad_cat_id": 33776,
        "meta_element_set_no": 999,
        "meta_rev_at_epoch": 88283,
        "meta_bstar": 0.00026587,
        "meta_mean_motion_dot": 8.29e-06,
        "meta_mean_motion_ddot": 0,
        "tle_line1": "1 33776U 97051P   25360.73229979  .00000829  00000+0  26587-3 0  9991",
        "tle_line2": "2 33776  86.4031  74.8995 0015882 146.2524 338.8136 14.38258502882839"
      },
      "geometry": {
        "type": "Point",
        "coordinates": [
          -105.33780237366005,
          1.3809656019622354
        ]
      }
    },
    {
      "type": "Feature",
      "properties": {
        "norad_id": 33777,
        "name": "IRIDIUM 33 DEB",
        "group": "iridium-33-debris",
        "lat": 35.38308299455227,
        "lon": -153.61967171338196,
        "alt_km": 701.5251190275603,
        "timestamp": "2025-12-27T02:10:16.573861+00:00",
        "meta_object_name": "IRIDIUM 33 DEB",
        "meta_object_id": "1997-051Q",
        "meta_epoch": "2025-12-26T18:54:38.233728",
        "meta_mean_motion": 14.55709747,
        "meta_eccentricity": 0.0006508,
        "meta_inclination": 86.3775,
        "meta_ra_of_asc_node": 29.0907,
        "meta_arg_of_pericenter": 190.9018,
        "meta_mean_anomaly": 169.205,
        "meta_ephemeris_type": 0,
        "meta_classification_type": "U",
        "meta_norad_cat_id": 33777,
        "meta_element_set_no": 999,
        "meta_rev_at_epoch": 88738,
        "meta_bstar": 0.00082529,
        "meta_mean_motion_dot": 3.628e-05,
        "meta_mean_motion_ddot": 0,
        "tle_line1": "1 33777U 97051Q   25360.78794252  .00003628  00000+0  82529-3 0  9996",
        "tle_line2": "2 33777  86.3775  29.0907 0006508 190.9018 169.2050 14.55709747887385"
      },
      "geometry": {
        "type": "Point",
        "coordinates": [
          -153.61967171338196,
          35.38308299455227
        ]
      }
    },
    {
      "type": "Feature",
      "properties": {
        "norad_id": 33850,
        "name": "IRIDIUM 33 DEB",
        "group": "iridium-33-debris",
        "lat": 48.100057753795795,
        "lon": -160.08170872504013,
        "alt_km": 737.8042775302129,
        "timestamp": "2025-12-27T02:10:16.573873+00:00",
        "meta_object_name": "IRIDIUM 33 DEB",
        "meta_object_id": "1997-051T",
        "meta_epoch": "2025-12-26T19:42:08.737344",
        "meta_mean_motion": 14.4218265,
        "meta_eccentricity": 0.0013363,
        "meta_inclination": 86.3409,
        "meta_ra_of_asc_node": 24.124,
        "meta_arg_of_pericenter": 119.2771,
        "meta_mean_anomaly": 53.885,
        "meta_ephemeris_type": 0,
        "meta_classification_type": "U",
        "meta_norad_cat_id": 33850,
        "meta_element_set_no": 999,
        "meta_rev_at_epoch": 88355,
        "meta_bstar": 0.00045325,
        "meta_mean_motion_dot": 1.513e-05,
        "meta_mean_motion_ddot": 0,
        "tle_line1": "1 33850U 97051T   25360.82093446  .00001513  00000+0  45325-3 0  9994",
        "tle_line2": "2 33850  86.3409  24.1240 0013363 119.2771  53.8850 14.42182650883559"
      },
      "geometry": {
        "type": "Point",
        "coordinates": [
          -160.08170872504013,
          48.100057753795795
        ]
      }
    },
    {
      "type": "Feature",
      "properties": {
        "norad_id": 33853,
        "name": "IRIDIUM 33 DEB",
        "group": "iridium-33-debris",
        "lat": 85.90050787682009,
        "lon": 86.03385059817101,
        "alt_km": 914.3272678859676,
        "timestamp": "2025-12-27T02:10:16.573886+00:00",
        "meta_object_name": "IRIDIUM 33 DEB",
        "meta_object_id": "1997-051W",
        "meta_epoch": "2025-12-26T10:52:30.839808",
        "meta_mean_motion": 13.99126555,
        "meta_eccentricity": 0.0207803,
        "meta_inclination": 86.0001,
        "meta_ra_of_asc_node": 343.7973,
        "meta_arg_of_pericenter": 193.5253,
        "meta_mean_anomaly": 291.4961,
        "meta_ephemeris_type": 0,
        "meta_classification_type": "U",
        "meta_norad_cat_id": 33853,
        "meta_element_set_no": 999,
        "meta_rev_at_epoch": 85537,
        "meta_bstar": 0.0011675,
        "meta_mean_motion_dot": 2.052e-05,
        "meta_mean_motion_ddot": 0,
        "tle_line1": "1 33853U 97051W   25360.45313472  .00002052  00000+0  11675-2 0  9999",
        "tle_line2": "2 33853  86.0001 343.7973 0207803 193.5253 291.4961 13.99126555855379"
      },
      "geometry": {
        "type": "Point",
        "coordinates": [
          86.03385059817101,
          85.90050787682009
        ]
      }
    }
  ]
}